ISS OBJECT YE           
1 67688U 98067YE  26060.15619707  .00046194  00000+0  76912-3 0  9996
2 67688  51.6321 114.1774 0007595 122.8780 237.2942 15.51525698  3384
PRC TEST SPACECRAFT 4   
1 67689U 26024A   26060.25355333  .00000123  00000+0  36066-4 0  9993
2 67689  49.9855  62.3727 0006137 327.6458  32.4107 14.91680526  3324
CZ-2F R/B               
1 67690U 26024B   26060.23556302  .00020721  00000+0  38161-3 0  9995
2 67690  49.9879  56.9885 0175374 239.8610 118.4869 15.33950722  3392
CZ-2F DEB               
1 67691U 26024C   26060.21732976  .00997565  10747-4  78723-3 0  9998
2 67691  49.9043  50.5250 0177499 252.7219 105.4273 15.88742150  3468
CZ-2F DEB               
1 67692U 26024D   26060.28083219  .00223892  00000+0  41258-2 0  9998
2 67692  50.3173  59.9179 0244075 247.0020 110.5025 15.21667829  3349
STARLINK-36748          
1 67693U 26025A   26060.28331710  .00081457  00000+0  54006-3 0  9997
2 67693  97.2844 171.4007 0001599   7.9121 352.2169 15.75264233  4618
STARLINK-36753          
1 67694U 26025B   26060.27557531  .00175188  00000+0  11480-2 0  9991
2 67694  97.2841 171.4106 0001390  36.7895 323.3466 15.75259634  4622
STARLINK-36750          
1 67695U 26025C   26060.26060574  .00285712  00000+0  14351-2 0  9992
2 67695  97.2839 171.4322 0000942 100.6435 259.4939 15.80951816  4613
STARLINK-36401          
1 67696U 26025D   26060.25001157  .00071337  00000+0  47597-3 0  9999
2 67696  97.2845 171.4188 0001116  63.9722 229.2926 15.75150751  4495
STARLINK-36704          
1 67697U 26025E   26060.27345869  .00159163  00000+0  10454-2 0  9998
2 67697  97.2841 171.4126 0001238  63.0235 297.1156 15.75251050  4616
STARLINK-36697          
1 67698U 26025F   26060.25413601  .00309326  00000+0  15459-2 0  9995
2 67698  97.2844 171.4397 0001369 104.7119 255.4302 15.81002163  4615
STARLINK-36716          
1 67699U 26025G   26060.25241985  .00127762  00000+0  65598-3 0  9992
2 67699  97.2849 171.4420 0001561  68.5141 291.6293 15.80883768  4623
