CCSDS_OMM_VERS = 2.0
CREATION_DATE  = 
ORIGINATOR     = 

OBJECT_NAME    = ISS OBJECT YE
OBJECT_ID      = 1998-067YE
CENTER_NAME    = EARTH
REF_FRAME      = TEME
TIME_SYSTEM    = UTC
MEAN_ELEMENT_THEORY = SGP/SGP4

EPOCH          = 2026-03-01T03:44:55.426848
MEAN_MOTION    = 15.51525698
ECCENTRICITY   = .00075959
INCLINATION    = 51.6321
RA_OF_ASC_NODE = 114.1774
ARG_OF_PERICENTER = 122.8780
MEAN_ANOMALY   = 237.2942

EPHEMERIS_TYPE = 0
CLASSIFICATION_TYPE = U
NORAD_CAT_ID   = 67688
ELEMENT_SET_NO = 999
REV_AT_EPOCH   = 338
BSTAR          = .76911585E-3
MEAN_MOTION_DOT = .46194E-3
MEAN_MOTION_DDOT = 0

CCSDS_OMM_VERS = 2.0
CREATION_DATE  = 
ORIGINATOR     = 

OBJECT_NAME    = PRC TEST SPACECRAFT 4
OBJECT_ID      = 2026-024A
CENTER_NAME    = EARTH
REF_FRAME      = TEME
TIME_SYSTEM    = UTC
MEAN_ELEMENT_THEORY = SGP/SGP4

EPOCH          = 2026-03-01T06:05:07.007712
MEAN_MOTION    = 14.91680526
ECCENTRICITY   = .00061377
INCLINATION    = 49.9855
RA_OF_ASC_NODE = 62.3727
ARG_OF_PERICENTER = 327.6458
MEAN_ANOMALY   = 32.4107

EPHEMERIS_TYPE = 0
CLASSIFICATION_TYPE = U
NORAD_CAT_ID   = 67689
ELEMENT_SET_NO = 999
REV_AT_EPOCH   = 332
BSTAR          = .36066013E-4
MEAN_MOTION_DOT = .123E-5
MEAN_MOTION_DDOT = 0

CCSDS_OMM_VERS = 2.0
CREATION_DATE  = 
ORIGINATOR     = 

OBJECT_NAME    = CZ-2F R/B
OBJECT_ID      = 2026-024B
CENTER_NAME    = EARTH
REF_FRAME      = TEME
TIME_SYSTEM    = UTC
MEAN_ELEMENT_THEORY = SGP/SGP4

EPOCH          = 2026-03-01T05:39:12.644928
MEAN_MOTION    = 15.33950722
ECCENTRICITY   = .01753745
INCLINATION    = 49.9879
RA_OF_ASC_NODE = 56.9885
ARG_OF_PERICENTER = 239.8610
MEAN_ANOMALY   = 118.4869

EPHEMERIS_TYPE = 0
CLASSIFICATION_TYPE = U
NORAD_CAT_ID   = 67690
ELEMENT_SET_NO = 999
REV_AT_EPOCH   = 339
BSTAR          = .38160867E-3
MEAN_MOTION_DOT = .20721E-3
MEAN_MOTION_DDOT = 0

CCSDS_OMM_VERS = 2.0
CREATION_DATE  = 
ORIGINATOR     = 

OBJECT_NAME    = CZ-2F DEB
OBJECT_ID      = 2026-024C
CENTER_NAME    = EARTH
REF_FRAME      = TEME
TIME_SYSTEM    = UTC
MEAN_ELEMENT_THEORY = SGP/SGP4

EPOCH          = 2026-03-01T05:12:57.291264
MEAN_MOTION    = 15.88742150
ECCENTRICITY   = .01774992
INCLINATION    = 49.9043
RA_OF_ASC_NODE = 50.5250
ARG_OF_PERICENTER = 252.7219
MEAN_ANOMALY   = 105.4273

EPHEMERIS_TYPE = 0
CLASSIFICATION_TYPE = U
NORAD_CAT_ID   = 67691
ELEMENT_SET_NO = 999
REV_AT_EPOCH   = 346
BSTAR          = .78723175E-3
MEAN_MOTION_DOT = .997565E-2
MEAN_MOTION_DDOT = .10746518E-4

CCSDS_OMM_VERS = 2.0
CREATION_DATE  = 
ORIGINATOR     = 

OBJECT_NAME    = CZ-2F DEB
OBJECT_ID      = 2026-024D
CENTER_NAME    = EARTH
REF_FRAME      = TEME
TIME_SYSTEM    = UTC
MEAN_ELEMENT_THEORY = SGP/SGP4

EPOCH          = 2026-03-01T06:44:23.901216
MEAN_MOTION    = 15.21667829
ECCENTRICITY   = .02440757
INCLINATION    = 50.3173
RA_OF_ASC_NODE = 59.9179
ARG_OF_PERICENTER = 247.0020
MEAN_ANOMALY   = 110.5025

EPHEMERIS_TYPE = 0
CLASSIFICATION_TYPE = U
NORAD_CAT_ID   = 67692
ELEMENT_SET_NO = 999
REV_AT_EPOCH   = 334
BSTAR          = .41257833E-2
MEAN_MOTION_DOT = .223892E-2
MEAN_MOTION_DDOT = 0

CCSDS_OMM_VERS = 2.0
CREATION_DATE  = 
ORIGINATOR     = 

OBJECT_NAME    = STARLINK-36748
OBJECT_ID      = 2026-025A
CENTER_NAME    = EARTH
REF_FRAME      = TEME
TIME_SYSTEM    = UTC
MEAN_ELEMENT_THEORY = SGP/SGP4

EPOCH          = 2026-03-01T06:47:58.597440
MEAN_MOTION    = 15.75264233
ECCENTRICITY   = .00015994
INCLINATION    = 97.2844
RA_OF_ASC_NODE = 171.4007
ARG_OF_PERICENTER = 7.9121
MEAN_ANOMALY   = 352.2169

EPHEMERIS_TYPE = 0
CLASSIFICATION_TYPE = U
NORAD_CAT_ID   = 67693
ELEMENT_SET_NO = 999
REV_AT_EPOCH   = 461
BSTAR          = .54005517E-3
MEAN_MOTION_DOT = .81457E-3
MEAN_MOTION_DDOT = 0

CCSDS_OMM_VERS = 2.0
CREATION_DATE  = 
ORIGINATOR     = 

OBJECT_NAME    = STARLINK-36753
OBJECT_ID      = 2026-025B
CENTER_NAME    = EARTH
REF_FRAME      = TEME
TIME_SYSTEM    = UTC
MEAN_ELEMENT_THEORY = SGP/SGP4

EPOCH          = 2026-03-01T06:36:49.706784
MEAN_MOTION    = 15.75259634
ECCENTRICITY   = .00013905
INCLINATION    = 97.2841
RA_OF_ASC_NODE = 171.4106
ARG_OF_PERICENTER = 36.7895
MEAN_ANOMALY   = 323.3466

EPHEMERIS_TYPE = 0
CLASSIFICATION_TYPE = U
NORAD_CAT_ID   = 67694
ELEMENT_SET_NO = 999
REV_AT_EPOCH   = 462
BSTAR          = .11480113E-2
MEAN_MOTION_DOT = .175188E-2
MEAN_MOTION_DDOT = 0

CCSDS_OMM_VERS = 2.0
CREATION_DATE  = 
ORIGINATOR     = 

OBJECT_NAME    = STARLINK-36750
OBJECT_ID      = 2026-025C
CENTER_NAME    = EARTH
REF_FRAME      = TEME
TIME_SYSTEM    = UTC
MEAN_ELEMENT_THEORY = SGP/SGP4

EPOCH          = 2026-03-01T06:15:16.335936
MEAN_MOTION    = 15.80951816
ECCENTRICITY   = .00009424
INCLINATION    = 97.2839
RA_OF_ASC_NODE = 171.4322
ARG_OF_PERICENTER = 100.6435
MEAN_ANOMALY   = 259.4939

EPHEMERIS_TYPE = 0
CLASSIFICATION_TYPE = U
NORAD_CAT_ID   = 67695
ELEMENT_SET_NO = 999
REV_AT_EPOCH   = 461
BSTAR          = .14351022E-2
MEAN_MOTION_DOT = .285712E-2
MEAN_MOTION_DDOT = 0

CCSDS_OMM_VERS = 2.0
CREATION_DATE  = 
ORIGINATOR     = 

OBJECT_NAME    = STARLINK-36401
OBJECT_ID      = 2026-025D
CENTER_NAME    = EARTH
REF_FRAME      = TEME
TIME_SYSTEM    = UTC
MEAN_ELEMENT_THEORY = SGP/SGP4

EPOCH          = 2026-03-01T06:00:00.999648
MEAN_MOTION    = 15.75150751
ECCENTRICITY   = .00011163
INCLINATION    = 97.2845
RA_OF_ASC_NODE = 171.4188
ARG_OF_PERICENTER = 63.9722
MEAN_ANOMALY   = 229.2926

EPHEMERIS_TYPE = 0
CLASSIFICATION_TYPE = U
NORAD_CAT_ID   = 67696
ELEMENT_SET_NO = 999
REV_AT_EPOCH   = 449
BSTAR          = .47596906E-3
MEAN_MOTION_DOT = .71337E-3
MEAN_MOTION_DDOT = 0

CCSDS_OMM_VERS = 2.0
CREATION_DATE  = 
ORIGINATOR     = 

OBJECT_NAME    = STARLINK-36704
OBJECT_ID      = 2026-025E
CENTER_NAME    = EARTH
REF_FRAME      = TEME
TIME_SYSTEM    = UTC
MEAN_ELEMENT_THEORY = SGP/SGP4

EPOCH          = 2026-03-01T06:33:46.830816
MEAN_MOTION    = 15.75251050
ECCENTRICITY   = .00012386
INCLINATION    = 97.2841
RA_OF_ASC_NODE = 171.4126
ARG_OF_PERICENTER = 63.0235
MEAN_ANOMALY   = 297.1156

EPHEMERIS_TYPE = 0
CLASSIFICATION_TYPE = U
NORAD_CAT_ID   = 67697
ELEMENT_SET_NO = 999
REV_AT_EPOCH   = 461
BSTAR          = .104544E-2
MEAN_MOTION_DOT = .159163E-2
MEAN_MOTION_DDOT = 0

CCSDS_OMM_VERS = 2.0
CREATION_DATE  = 
ORIGINATOR     = 

OBJECT_NAME    = STARLINK-36697
OBJECT_ID      = 2026-025F
CENTER_NAME    = EARTH
REF_FRAME      = TEME
TIME_SYSTEM    = UTC
MEAN_ELEMENT_THEORY = SGP/SGP4

EPOCH          = 2026-03-01T06:05:57.351264
MEAN_MOTION    = 15.81002163
ECCENTRICITY   = .00013695
INCLINATION    = 97.2844
RA_OF_ASC_NODE = 171.4397
ARG_OF_PERICENTER = 104.7119
MEAN_ANOMALY   = 255.4302

EPHEMERIS_TYPE = 0
CLASSIFICATION_TYPE = U
NORAD_CAT_ID   = 67698
ELEMENT_SET_NO = 999
REV_AT_EPOCH   = 461
BSTAR          = .15458688E-2
MEAN_MOTION_DOT = .309326E-2
MEAN_MOTION_DDOT = 0

CCSDS_OMM_VERS = 2.0
CREATION_DATE  = 
ORIGINATOR     = 

OBJECT_NAME    = STARLINK-36716
OBJECT_ID      = 2026-025G
CENTER_NAME    = EARTH
REF_FRAME      = TEME
TIME_SYSTEM    = UTC
MEAN_ELEMENT_THEORY = SGP/SGP4

EPOCH          = 2026-03-01T06:03:29.075040
MEAN_MOTION    = 15.80883768
ECCENTRICITY   = .00015618
INCLINATION    = 97.2849
RA_OF_ASC_NODE = 171.4420
ARG_OF_PERICENTER = 68.5141
MEAN_ANOMALY   = 291.6293

EPHEMERIS_TYPE = 0
CLASSIFICATION_TYPE = U
NORAD_CAT_ID   = 67699
ELEMENT_SET_NO = 999
REV_AT_EPOCH   = 462
BSTAR          = .65598066E-3
MEAN_MOTION_DOT = .127762E-2
MEAN_MOTION_DDOT = 0

